{
  "norad_id": 66624,
  "name": "STARLINK-35927",
  "history": [
    {
      "epoch": "2026-03-28T07:46:34.129632Z",
      "apogee_km": 475.9318243595417,
      "perigee_km": 474.3803758675376,
      "latitude_deg": -2.8398136929056426e-05,
      "longitude_deg": 110.7083813255881,
      "height_km": 476.1551739093389,
      "semi_major_axis_km": 6853.293100113539,
      "eccentricity": 0.00011319,
      "inclination_deg": 53.1594,
      "raan_deg": 53.0967,
      "arg_perigee_deg": 97.4702,
      "mean_anomaly_deg": 262.6427,
      "mean_motion_rev_day": 15.3021975
    },
    {
      "epoch": "2026-03-29T04:09:15.665472Z",
      "apogee_km": 476.0544093315357,
      "perigee_km": 474.40685975219185,
      "latitude_deg": 4.7422234622017596e-05,
      "longitude_deg": 160.2520685247733,
      "height_km": 476.147283356033,
      "semi_major_axis_km": 6853.3676345418635,
      "eccentricity": 0.0001202,
      "inclination_deg": 53.1588,
      "raan_deg": 49.1503,
      "arg_perigee_deg": 91.2951,
      "mean_anomaly_deg": 268.8188,
      "mean_motion_rev_day": 15.30194787
    },
    {
      "epoch": "2026-03-30T03:40:03.602208Z",
      "apogee_km": 476.13776495295133,
      "perigee_km": 474.24487567088,
      "latitude_deg": -4.529889451566107e-05,
      "longitude_deg": 162.0370060734087,
      "height_km": 476.0227571420833,
      "semi_major_axis_km": 6853.328320311915,
      "eccentricity": 0.0001381,
      "inclination_deg": 53.1597,
      "raan_deg": 44.6007,
      "arg_perigee_deg": 85.9728,
      "mean_anomaly_deg": 274.143,
      "mean_motion_rev_day": 15.30207954
    },
    {
      "epoch": "2026-03-30T03:40:03.603072Z",
      "apogee_km": 476.13790201951633,
      "perigee_km": 474.2447386043141,
      "latitude_deg": -4.713964087997426e-05,
      "longitude_deg": 162.03700109210644,
      "height_km": 476.02274751620627,
      "semi_major_axis_km": 6853.328320311915,
      "eccentricity": 0.00013812,
      "inclination_deg": 53.1597,
      "raan_deg": 44.6007,
      "arg_perigee_deg": 85.9728,
      "mean_anomaly_deg": 274.143,
      "mean_motion_rev_day": 15.30207954
    },
    {
      "epoch": "2026-03-31T20:25:27.276960Z",
      "apogee_km": 475.74222975203975,
      "perigee_km": 474.6265090331026,
      "latitude_deg": 4.782535039424032e-05,
      "longitude_deg": -98.87338028625372,
      "height_km": 475.91073663812216,
      "semi_major_axis_km": 6853.321369392571,
      "eccentricity": 8.14e-05,
      "inclination_deg": 53.1617,
      "raan_deg": 36.7127,
      "arg_perigee_deg": 71.9821,
      "mean_anomaly_deg": 288.1269,
      "mean_motion_rev_day": 15.30210282
    },
    {
      "epoch": "2026-04-01T13:40:02.537184Z",
      "apogee_km": 476.36650657209975,
      "perigee_km": 474.02814889947604,
      "latitude_deg": 7.184792116252971e-05,
      "longitude_deg": -1.5664291765717562,
      "height_km": 476.0531027386034,
      "semi_major_axis_km": 6853.334327735788,
      "eccentricity": 0.0001706,
      "inclination_deg": 53.1622,
      "raan_deg": 33.3747,
      "arg_perigee_deg": 87.9453,
      "mean_anomaly_deg": 272.1744,
      "mean_motion_rev_day": 15.30205942
    },
    {
      "epoch": "2026-04-02T13:10:49.177056Z",
      "apogee_km": 475.7576017549354,
      "perigee_km": 474.0204967119762,
      "latitude_deg": 4.594472712561753e-06,
      "longitude_deg": 0.22464606452018368,
      "height_km": 475.81912483403556,
      "semi_major_axis_km": 6853.0260492334555,
      "eccentricity": 0.00012674,
      "inclination_deg": 53.1623,
      "raan_deg": 28.8258,
      "arg_perigee_deg": 92.0921,
      "mean_anomaly_deg": 268.0225,
      "mean_motion_rev_day": 15.30309196
    },
    {
      "epoch": "2026-04-03T18:57:51.558912Z",
      "apogee_km": 477.02369864765114,
      "perigee_km": 473.4914590817043,
      "latitude_deg": 1.0874584669510626e-06,
      "longitude_deg": -93.52236590166908,
      "height_km": 476.1778112016221,
      "semi_major_axis_km": 6853.394578864678,
      "eccentricity": 0.0002577,
      "inclination_deg": 53.1593,
      "raan_deg": 23.0619,
      "arg_perigee_deg": 90.7834,
      "mean_anomaly_deg": 269.3462,
      "mean_motion_rev_day": 15.30185763
    },
    {
      "epoch": "2026-04-04T12:12:26.280000Z",
      "apogee_km": 476.07265673433994,
      "perigee_km": 474.2039056306676,
      "latitude_deg": -4.171116902341618e-05,
      "longitude_deg": 3.787186567207818,
      "height_km": 476.34135711193346,
      "semi_major_axis_km": 6853.275281182503,
      "eccentricity": 0.00013634,
      "inclination_deg": 53.1616,
      "raan_deg": 19.7243,
      "arg_perigee_deg": 109.0416,
      "mean_anomaly_deg": 251.0732,
      "mean_motion_rev_day": 15.30225718
    },
    {
      "epoch": "2026-04-05T03:52:58.488384Z",
      "apogee_km": 476.02652267050416,
      "perigee_km": 474.6443143531387,
      "latitude_deg": -1.8201250946128494e-06,
      "longitude_deg": 124.9755393606947,
      "height_km": 476.3706053708598,
      "semi_major_axis_km": 6853.472418511821,
      "eccentricity": 0.00010084,
      "inclination_deg": 53.1609,
      "raan_deg": 16.6906,
      "arg_perigee_deg": 101.4043,
      "mean_anomaly_deg": 258.7071,
      "mean_motion_rev_day": 15.30159694
    },
    {
      "epoch": "2026-04-06T01:49:43.324896Z",
      "apogee_km": 475.8469921855976,
      "perigee_km": 474.48167749367076,
      "latitude_deg": -8.618285467361618e-07,
      "longitude_deg": 150.63973809999698,
      "height_km": 476.27976633935043,
      "semi_major_axis_km": 6853.301334839634,
      "eccentricity": 9.961e-05,
      "inclination_deg": 53.1599,
      "raan_deg": 12.4429,
      "arg_perigee_deg": 108.5279,
      "mean_anomaly_deg": 251.583,
      "mean_motion_rev_day": 15.30216992
    },
    {
      "epoch": "2026-04-07T18:35:05.746848Z",
      "apogee_km": 476.0324401136086,
      "perigee_km": 474.3629677797271,
      "latitude_deg": 2.148091306965596e-05,
      "longitude_deg": -110.26427343722203,
      "height_km": 476.1711262519453,
      "semi_major_axis_km": 6853.334703946667,
      "eccentricity": 0.0001218,
      "inclination_deg": 53.1591,
      "raan_deg": 4.5561,
      "arg_perigee_deg": 95.1803,
      "mean_anomaly_deg": 264.9337,
      "mean_motion_rev_day": 15.30205816
    },
    {
      "epoch": "2026-04-08T10:15:38.029536Z",
      "apogee_km": 476.0134092040598,
      "perigee_km": 474.42110087644323,
      "latitude_deg": -2.6183114956372082e-05,
      "longitude_deg": 10.92270245229208,
      "height_km": 475.96284675017915,
      "semi_major_axis_km": 6853.354255040251,
      "eccentricity": 0.00011617,
      "inclination_deg": 53.1594,
      "raan_deg": 1.5214,
      "arg_perigee_deg": 78.9495,
      "mean_anomaly_deg": 281.1636,
      "mean_motion_rev_day": 15.30199268
    },
    {
      "epoch": "2026-04-09T09:46:25.854816Z",
      "apogee_km": 475.96540299895787,
      "perigee_km": 474.43039304849844,
      "latitude_deg": -3.2591938486063636e-05,
      "longitude_deg": 12.70826643075304,
      "height_km": 475.9752209563905,
      "semi_major_axis_km": 6853.334898023728,
      "eccentricity": 0.00011199,
      "inclination_deg": 53.1587,
      "raan_deg": 356.9719,
      "arg_perigee_deg": 80.941,
      "mean_anomaly_deg": 279.1717,
      "mean_motion_rev_day": 15.30205751
    },
    {
      "epoch": "2026-04-09T23:52:54.676128Z",
      "apogee_km": 475.7295727398432,
      "perigee_km": 474.7355600179362,
      "latitude_deg": 1.2643043562775685e-05,
      "longitude_deg": 157.7758144092609,
      "height_km": 475.7890461238093,
      "semi_major_axis_km": 6853.369566378889,
      "eccentricity": 7.252e-05,
      "inclination_deg": 53.1586,
      "raan_deg": 354.2389,
      "arg_perigee_deg": 46.4502,
      "mean_anomaly_deg": 313.6559,
      "mean_motion_rev_day": 15.3019414
    },
    {
      "epoch": "2026-04-11T02:31:48.997344Z",
      "apogee_km": 476.0107732315764,
      "perigee_km": 474.4743825977994,
      "latitude_deg": 2.3371366508601545e-05,
      "longitude_deg": 111.80026961201,
      "height_km": 475.99288763883317,
      "semi_major_axis_km": 6853.379577914688,
      "eccentricity": 0.00011209,
      "inclination_deg": 53.1592,
      "raan_deg": 349.0841,
      "arg_perigee_deg": 78.8991,
      "mean_anomaly_deg": 281.2136,
      "mean_motion_rev_day": 15.30190787
    },
    {
      "epoch": "2026-04-12T22:25:18.545952Z",
      "apogee_km": 476.0327745126706,
      "perigee_km": 474.3715251027579,
      "latitude_deg": -2.2813731838337042e-05,
      "longitude_deg": 163.12555258371967,
      "height_km": 475.8738649467249,
      "semi_major_axis_km": 6853.339149807714,
      "eccentricity": 0.0001212,
      "inclination_deg": 53.1599,
      "raan_deg": 340.5851,
      "arg_perigee_deg": 74.1758,
      "mean_anomaly_deg": 285.9376,
      "mean_motion_rev_day": 15.30204327
    },
    {
      "epoch": "2026-04-14T21:26:54.347712Z",
      "apogee_km": 476.40869134922286,
      "perigee_km": 473.9949454173875,
      "latitude_deg": -5.234968124413074e-05,
      "longitude_deg": 166.69624417013594,
      "height_km": 476.21297776280767,
      "semi_major_axis_km": 6853.338818383305,
      "eccentricity": 0.0001761,
      "inclination_deg": 53.16,
      "raan_deg": 331.4863,
      "arg_perigee_deg": 95.4085,
      "mean_anomaly_deg": 264.7116,
      "mean_motion_rev_day": 15.30204438
    },
    {
      "epoch": "2026-04-15T20:57:42.173856Z",
      "apogee_km": 476.3515276921644,
      "perigee_km": 474.03784291520606,
      "latitude_deg": 1.7809379382994582e-05,
      "longitude_deg": 168.47896644593928,
      "height_km": 476.3104929529503,
      "semi_major_axis_km": 6853.331685303685,
      "eccentricity": 0.0001688,
      "inclination_deg": 53.1625,
      "raan_deg": 326.9339,
      "arg_perigee_deg": 100.8625,
      "mean_anomaly_deg": 259.2566,
      "mean_motion_rev_day": 15.30206827
    }
  ]
}